[{"OBJECT_NAME":"HAWK-11B","OBJECT_ID":"2024-247C","EPOCH":"2026-03-09T10:44:06.809856","MEAN_MOTION":15.2884707,"ECCENTRICITY":0.00046902,"INCLINATION":45.0161,"RA_OF_ASC_NODE":115.761,"ARG_OF_PERICENTER":333.0326,"MEAN_ANOMALY":27.0314,"EPHEMERIS_TYPE":0,"CLASSIFICATION_TYPE":"U","NORAD_CAT_ID":62379,"ELEMENT_SET_NO":999,"REV_AT_EPOCH":6773,"BSTAR":0.00032841927,"MEAN_MOTION_DOT":9.093e-5,"MEAN_MOTION_DDOT":0},{"OBJECT_NAME":"STARLINK-35410","OBJECT_ID":"2025-232V","EPOCH":"2026-03-09T09:12:33.573888","MEAN_MOTION":15.30201096,"ECCENTRICITY":0.00012382,"INCLINATION":53.1578,"RA_OF_ASC_NODE":104.9751,"ARG_OF_PERICENTER":87.7374,"MEAN_ANOMALY":272.3769,"EPHEMERIS_TYPE":0,"CLASSIFICATION_TYPE":"U","NORAD_CAT_ID":66024,"ELEMENT_SET_NO":999,"REV_AT_EPOCH":2339,"BSTAR":0.00054528187,"MEAN_MOTION_DOT":0.00015825,"MEAN_MOTION_DDOT":0}]
